EUTELSAT 21B            
1 38992U 12062B   25216.83514330  .00000139  00000+0  00000+0 0  9996
2 38992   0.0694  18.0641 0002854 115.7019 142.1054  1.00273519 46651
EUTELSAT 70B            
1 39020U 12069A   25216.20237528 -.00000034  00000+0  00000+0 0  9993
2 39020   0.0647  18.7131 0003479 116.6197 321.0127  1.00271958 46333
EUTELSAT 117 WEST A     
1 39122U 13012A   25216.87899684 -.00000004  00000+0  00000+0 0  9992
2 39122   0.0418 275.7871 0003009 218.9652  18.5557  1.00271594 45261
EUTELSAT 7B             
1 39163U 13022A   25216.90361027  .00000057  00000+0  00000+0 0  9994
2 39163   0.0702 342.1864 0002848  76.3102 227.4861  1.00272065 44788
EXPRESS-AT1             
1 39612U 14010A   25216.69921426  .00000087  00000+0  00000+0 0  9995
2 39612   0.0098  72.0866 0000649 320.2742 228.8506  1.00272239 41640
EXPRESS-AT2             
1 39613U 14010B   25216.00205784 -.00000273  00000+0  00000+0 0  9991
2 39613   0.0081 348.5860 0001159  85.6170  19.1937  1.00261901 41320
EUTELSAT 3B             
1 39773U 14030A   25216.61735356  .00000029  00000+0  00000+0 0  9998
2 39773   0.0639  19.4884 0004298 116.7950  42.4716  1.00273079 40899
EUTELSAT 115 WEST B     
1 40425U 15010B   25216.59395345 -.00000015  00000+0  00000+0 0  9996
2 40425   0.0040  18.8515 0000403 259.8895 133.5632  1.00268551 38217
